{
  "type": "Feature",
  "properties": {
    "city": "Liberia",
    "country": "Costa Rica",
    "country_code": "cr",
    "label": "Liberia, Costa Rica",
    "area_km2": 15.26
  },
  "geometry": {
    "type": "Polygon",
    "coordinates": [
      [
        [
          -85.43236567975714,
          10.603691022881243
        ],
        [
          -85.44212999912793,
          10.61890890487426
        ],
        [
          -85.45577846764068,
          10.64239703969948
        ],
        [
          -85.45146274637185,
          10.645843227908545
        ],
        [
          -85.44482732492095,
          10.647433763172277
        ],
        [
          -85.43188016111442,
          10.656764736149414
        ],
        [
          -85.42804995848832,
          10.657082832462189
        ],
        [
          -85.42643156301249,
          10.654538052655768
        ],
        [
          -85.42497500708424,
          10.650190671298201
        ],
        [
          -85.42314082554498,
          10.645472101819403
        ],
        [
          -85.41985008807751,
          10.643298354223708
        ],
        [
          -85.42146848355333,
          10.639003831714314
        ],
        [
          -85.4162896180307,
          10.635716625479958
        ],
        [
          -85.42006587414095,
          10.631793139419349
        ],
        [
          -85.42664734907594,
          10.629354190230453
        ],
        [
          -85.42330266509255,
          10.620287490912286
        ],
        [
          -85.4162896180307,
          10.618113563946466
        ],
        [
          -85.40398981241447,
          10.61365961650566
        ],
        [
          -85.4074963359454,
          10.60984189562893
        ],
        [
          -85.41537252726106,
          10.608304189035223
        ],
        [
          -85.43236567975714,
          10.603691022881243
        ]
      ]
    ]
  }
}